STARLINK-31421          
1 59218U 24046T   26068.55982008  .00000550  00000+0  30686-4 0  9996
2 59218  53.1614 155.6822 0000945 117.4046 242.7051 15.30185382113021
SCS-01 D                
1 63985U 25100D   26068.75607686  .00032471  00000+0  10528-2 0  9990
2 63985  97.3730 145.4097 0006346 266.2302  93.8214 15.31902149 45621
